ADDRESS,APARTMENT NAME,RENT,FEATURES,APPLIANCES,SCHOOL_NAME_1,GRADES_1,RANK_1,SCHOOL_NAME_2,GRADES_2,RANK_2,SCHOOL_NAME_3,GRADES_3,RANK_3,ZIP CODE,CITY,BORO,AVERAGE RENT,IF_PETS_ALLOWED,FACTYPE,BUS STATION,COMMERCIAL GARAGE AND PARKING LOT,MUSEUM,PUBLIC LIBRARY,Safety_level
"1 Dutch St APT 7A, New York, NY 10038","1 Dutch St APT 7A, New York, NY 10038","$5,000/mo","ApartmentAvailable Now-- One-time feesCats, dogs OKCentral airIn unit laundry-- Parking-- Heating",,,,,,,,,,,10038,New York,MANHATTAN,5000.0,Allowed,MUSEUM,0,123,63,43,Very Safe
"1 Morningside Dr, New York, NY 10025",Avalon Morningside Park,"$4,740-$4,745/mo",,,,,,,,,,,,10025,New York,MANHATTAN,4742.5,Allowed,MUSEUM,0,123,63,43,Very Safe
"1 Union Square S, New York, NY 10003",Union Square South,,,"Dishwasher, Freezer, Oven, Range, Refrigerator",,,,,,,,,,10003,New York,MANHATTAN,,,MUSEUM,0,123,63,43,Very Safe
"1004 Fulton St #2B, Brooklyn, NY 11238","1004 Fulton St #2B, Brooklyn, NY 11238","$3,595/mo","ApartmentAvailable Now-- One-time feesCats, dogs OKCentral airIn unit laundry-- Parking-- Heating",,,,,,,,,,,11238,Brooklyn,BROOKLYN,3595.0,Allowed,COMMERCIAL GARAGE AND PARKING LOT,1,39,14,61,Caution Advised
"1030 Woodycrest Ave APT 1F, Bronx, NY 10452","1030 Woodycrest Ave APT 1F, Bronx, NY 10452","$1,900/mo","ApartmentAvailable Now-- One-time feesCats, dogs OK-- A/C-- Laundry-- Parking-- Heating",,,,,,,,,,,10452,Bronx,BRONX,1900.0,Allowed,COMMERCIAL GARAGE AND PARKING LOT,0,32,3,35,Relatively Safe
"105 Conselyea St #A, Brooklyn, NY 11211","105 Conselyea St #A, Brooklyn, NY 11211","$3,200/mo",ApartmentAvailable Now-- One-time fees-- Pets-- A/C-- Laundry-- Parking-- Heating,,,,,,,,,,,11211,Brooklyn,BROOKLYN,3200.0,,COMMERCIAL GARAGE AND PARKING LOT,1,39,14,61,Caution Advised
"105 Haven Ave APT 4K, New York, NY 10032","105 Haven Ave APT 4K, New York, NY 10032","$2,450/mo","ApartmentAvailable Now-- One-time feesCats, dogs OK-- A/C-- Laundry-- Parking-- Heating",,,,,,,,,,,10032,New York,MANHATTAN,2450.0,Allowed,MUSEUM,0,123,63,43,Very Safe
"105 Norfolk St APT 10C, New York, NY 10002","105 Norfolk St APT 10C, New York, NY 10002","$5,750/mo","ApartmentAvailable Now-- One-time feesCats, dogs OKCentral airIn unit laundry-- Parking-- Heating",,,,,,,,,,,10002,New York,MANHATTAN,5750.0,Allowed,MUSEUM,0,123,63,43,Very Safe
"1050 Bedford Ave #3A, Brooklyn, NY 11205","1050 Bedford Ave #3A, Brooklyn, NY 11205","$3,135/mo",ApartmentAvailable Fri Nov 1 2024-- One-time feesDogs OKCentral airIn unit laundry-- Parking-- Heating,,,,,,,,,,,11205,Brooklyn,BROOKLYN,3135.0,Allowed,COMMERCIAL GARAGE AND PARKING LOT,1,39,14,61,Caution Advised
"1065 2nd Ave, New York, NY 10022",Aalto57,"$4,825-$5,200/mo",,"Dishwasher, Dryer, Microwave oven, Refrigerator, Washer",,,,,,,,,,10022,New York,MANHATTAN,5012.5,Allowed,MUSEUM,0,123,63,43,Very Safe
"11 E 1st St, New York, NY 10003",Avalon Bowery Place,"$4,900-$4,980/mo",,,S.T.A.R. Academy - PS 63,PK-5,5.0,School For Global Leaders,6-8,6.0,Cascades High School,9-12,3.0,10003,New York,MANHATTAN,4940.0,Allowed,MUSEUM,0,123,63,43,Very Safe
"123 Washington St, New York, NY 10006",W Downtown Hotel & Residences,,Apartment buildingStudio-24 bedsIn-unit dryer + 1,"Dishwasher, Dryer, Washer",,,,,,,,,,10006,New York,MANHATTAN,,,MUSEUM,0,123,63,43,Very Safe
"13105 40th Rd APT 11G, Flushing, NY 11354","13105 40th Rd APT 11G, Flushing, NY 11354","$3,300/mo",ApartmentAvailable Fri Nov 1 2024-- One-time fees-- PetsCentral airIn unit laundry + 1Garage parking-- Heating,,,,,,,,,,,11354,Flushing,QUEENS,3300.0,,COMMERCIAL GARAGE AND PARKING LOT,1,35,10,68,Relatively Safe
"1368 York Ave #A3, New York, NY 10021","1368 York Ave #A3, New York, NY 10021","$2,750/mo","ApartmentAvailable Fri Nov 1 2024-- One-time feesCats, dogs OK-- A/C-- Laundry-- Parking-- Heating",,,,,,,,,,,10021,New York,MANHATTAN,2750.0,Allowed,MUSEUM,0,123,63,43,Very Safe
"138-28 Queens Blvd #5G, Jamaica, NY 11435","138-28 Queens Blvd #5G, Jamaica, NY 11435","$2,850/mo","ApartmentAvailable --- ---- One-time feesCats, dogs OK-- A/CShared laundryGarage parking-- Heating",,,,,,,,,,,11435,Jamaica,QUEENS,2850.0,Allowed,COMMERCIAL GARAGE AND PARKING LOT,1,35,10,68,Relatively Safe
"140 E 31st St APT 70, New York, NY 10016","140 E 31st St APT 70, New York, NY 10016","$3,795/mo",ApartmentAvailable --- ---- One-time fees-- Pets-- A/CIn unit laundry + 1-- Parking-- Heating,,,,,,,,,,,10016,New York,MANHATTAN,3795.0,,MUSEUM,0,123,63,43,Very Safe
"141-40 Pershing Cres #4, Jamaica, NY 11435","141-40 Pershing Cres #4, Jamaica, NY 11435","$2,000/mo",ApartmentAvailable Now-- One-time fees-- Pets-- A/C-- Laundry-- Parking-- Heating,,,,,,,,,,,11435,Jamaica,QUEENS,2000.0,,COMMERCIAL GARAGE AND PARKING LOT,1,35,10,68,Relatively Safe
"15 Cliff St, New York, NY 10038",15 Cliff,"$4,851-$5,251/mo",Apartment building1-2 beds,Dishwasher,,,,,,,,,,10038,New York,MANHATTAN,5051.0,,MUSEUM,0,123,63,43,Very Safe
"15 Cooper St #1B, Brooklyn, NY 11207","15 Cooper St #1B, Brooklyn, NY 11207","$2,500/mo","ApartmentAvailable Fri Nov 1 2024-- One-time feesCats, dogs OKCentral airIn unit laundry + 1-- Parking-- Heating",,,,,,,,,,,11207,Brooklyn,BROOKLYN,2500.0,Allowed,COMMERCIAL GARAGE AND PARKING LOT,1,39,14,61,Caution Advised
"15 Stanton St #4AC, New York, NY 10002","15 Stanton St #4AC, New York, NY 10002","$3,499/mo","ApartmentAvailable --- ---- One-time feesCats, dogs OK-- A/C-- Laundry-- Parking-- Heating",,,,,,,,,,,10002,New York,MANHATTAN,3499.0,Allowed,MUSEUM,0,123,63,43,Very Safe
"152-09 88th Ave #522, Jamaica, NY 11432","152-09 88th Ave #522, Jamaica, NY 11432","$2,700/mo","ApartmentAvailable Now-- One-time feesCats, dogs OKCentral airIn unit laundry + 1Garage parking-- Heating",,,,,,,,,,,11432,Jamaica,QUEENS,2700.0,Allowed,COMMERCIAL GARAGE AND PARKING LOT,1,35,10,68,Relatively Safe
"152-11 89th Ave #242, Jamaica, NY 11432","152-11 89th Ave #242, Jamaica, NY 11432","$2,550/mo","ApartmentAvailable --- ---- One-time feesCats, dogs OK-- A/CIn unit laundry + 1Garage parking-- Heating",,,,,,,,,,,11432,Jamaica,QUEENS,2550.0,Allowed,COMMERCIAL GARAGE AND PARKING LOT,1,35,10,68,Relatively Safe
"1533 E 19th St #1A, Brooklyn, NY 11230","1533 E 19th St #1A, Brooklyn, NY 11230","$2,625/mo","ApartmentAvailable Now-- One-time feesCats, dogs OKCentral airIn unit laundry + 1Garage parking-- Heating",,,,,,,,,,,11230,Brooklyn,BROOKLYN,2625.0,Allowed,COMMERCIAL GARAGE AND PARKING LOT,1,39,14,61,Caution Advised
"154 Franklin St APT 3F, Brooklyn, NY 11222","154 Franklin St APT 3F, Brooklyn, NY 11222","$4,950/mo","ApartmentAvailable --- ---- One-time feesCats, dogs OKCentral airIn unit laundry-- Parking-- Heating",,,,,,,,,,,11222,Brooklyn,BROOKLYN,4950.0,Allowed,COMMERCIAL GARAGE AND PARKING LOT,1,39,14,61,Caution Advised
"1595 Lexington Ave APT 5G, New York, NY 10029","1595 Lexington Ave APT 5G, New York, NY 10029","$3,400/mo",ApartmentAvailable Now-- One-time fees-- PetsCentral airShared laundry-- Parking-- Heating,,,,,,,,,,,10029,New York,MANHATTAN,3400.0,,MUSEUM,0,123,63,43,Very Safe
"160 W 24th St, New York, NY 10011",The Chelsea,"$4,686/mo",Apartment buildingStudio-2 bedsPet-friendlyIn-unit dryer + 2,"Dishwasher, Dryer, Washer",PS 11 Sarah J Garnett Elementary School (The),PK-5,6.0,Jhs 104 Simon Baruch,6-8,7.0,The High School of Fashion Industries,9-12,5.0,10011,New York,MANHATTAN,4686.0,Allowed,MUSEUM,0,123,63,43,Very Safe
"1609 Ocean Ave APT 1B, Brooklyn, NY 11230","1609 Ocean Ave APT 1B, Brooklyn, NY 11230","$1,685/mo","ApartmentAvailable --- ---- One-time feesCats, dogs OK-- A/C-- Laundry-- Parking-- Heating",,,,,,,,,,,11230,Brooklyn,BROOKLYN,1685.0,Allowed,COMMERCIAL GARAGE AND PARKING LOT,1,39,14,61,Caution Advised
"171 Metropolitan Ave #1F, Brooklyn, NY 11249","171 Metropolitan Ave #1F, Brooklyn, NY 11249","$3,450/mo",ApartmentAvailable Now-- One-time fees-- Pets-- A/C-- Laundry-- Parking-- Heating,,,,,,,,,,,11249,Brooklyn,BROOKLYN,3450.0,,COMMERCIAL GARAGE AND PARKING LOT,1,39,14,61,Caution Advised
"1711 Linden St #1AA, Ridgewood, NY 11385","1711 Linden St #1AA, Ridgewood, NY 11385","$2,950/mo","ApartmentAvailable --- ---- One-time feesCats, dogs OKCentral airIn unit laundry-- Parking-- Heating",,,,,,,,,,,11385,Ridgewood,QUEENS,2950.0,Allowed,COMMERCIAL GARAGE AND PARKING LOT,1,35,10,68,Relatively Safe
"178-60 Wexford Ter #5H, Jamaica, NY 11432","178-60 Wexford Ter #5H, Jamaica, NY 11432","$1,995/mo",ApartmentAvailable --- ---- One-time fees-- Pets-- A/CShared laundry-- Parking-- Heating,,,,,,,,,,,11432,Jamaica,QUEENS,1995.0,,COMMERCIAL GARAGE AND PARKING LOT,1,35,10,68,Relatively Safe
"18 6th Ave #3114, Brooklyn, NY 11217","18 6th Ave #3114, Brooklyn, NY 11217","$4,300/mo","ApartmentAvailable Sat Oct 12 2024-- One-time feesCats, dogs OK-- A/CIn unit laundry + 1-- Parking-- Heating",,,,,,,,,,,11217,Brooklyn,BROOKLYN,4300.0,Allowed,COMMERCIAL GARAGE AND PARKING LOT,1,39,14,61,Caution Advised
"180 W 20th St, Manhattan, NY 10011",The Westminster,,,,,,,,,,,,,10011,Manhattan,MANHATTAN,,,MUSEUM,0,123,63,43,Very Safe
"181 7th Ave APT 2, Brooklyn, NY 11215","181 7th Ave APT 2, Brooklyn, NY 11215","$2,900/mo",ApartmentAvailable Now-- One-time fees-- Pets-- A/C-- Laundry-- Parking-- Heating,,,,,,,,,,,11215,Brooklyn,BROOKLYN,2900.0,,COMMERCIAL GARAGE AND PARKING LOT,1,39,14,61,Caution Advised
"1838 2nd Ave #2A, New York, NY 10128","1838 2nd Ave #2A, New York, NY 10128","$3,645/mo",ApartmentAvailable Mon Dec 9 2024-- One-time fees-- PetsCentral airShared laundry-- Parking-- Heating,,,,,,,,,,,10128,New York,MANHATTAN,3645.0,,MUSEUM,0,123,63,43,Very Safe
"1928 Linden St #1A, Ridgewood, NY 11385","1928 Linden St #1A, Ridgewood, NY 11385","$2,500/mo","ApartmentAvailable --- ---- One-time feesCats, dogs OKCentral airIn unit laundry-- Parking-- Heating",,,,,,,,,,,11385,Ridgewood,QUEENS,2500.0,Allowed,COMMERCIAL GARAGE AND PARKING LOT,1,35,10,68,Relatively Safe
"2-26 50th Ave #3C, Long Island City, NY 11101","2-26 50th Ave #3C, Long Island City, NY 11101","$5,000/mo","ApartmentAvailable Now-- One-time feesCats, dogs OKCentral airIn unit laundry + 1Garage parking-- Heating",,,,,,,,,,,11101,Long Island City,QUEENS,5000.0,Allowed,COMMERCIAL GARAGE AND PARKING LOT,1,35,10,68,Relatively Safe
"200 Rector Pl, New York, NY 10280",Liberty Court,,Apartment buildingStudio-5 beds,Dishwasher,Middle 297,6-8,4.0,Battery Park City School,PK-8,9.0,Leadership And Public Service High School,9-12,5.0,10280,New York,MANHATTAN,,,MUSEUM,0,123,63,43,Very Safe
"201 E 87th St, Manhattan, NY 10128",Claridge House,,Apartment buildingStudio-4 bedsPet-friendlyOther parking + 2Air conditioning (central)In-unit dryer + 2,"Dishwasher, Dryer, Washer",,,,,,,,,,10128,Manhattan,MANHATTAN,,Allowed,MUSEUM,0,123,63,43,Very Safe
"2117 22nd Rd APT 1, Astoria, NY 11105","2117 22nd Rd APT 1, Astoria, NY 11105","$2,400/mo",ApartmentAvailable Tue Oct 15 2024-- One-time fees-- Pets-- A/CIn unit laundry-- Parking-- Heating,,,,,,,,,,,11105,Astoria,QUEENS,2400.0,,COMMERCIAL GARAGE AND PARKING LOT,1,35,10,68,Relatively Safe
"2119 21st St #2F, Astoria, NY 11105","2119 21st St #2F, Astoria, NY 11105","$2,100/mo","ApartmentAvailable Tue Oct 15 2024-- One-time feesCats, dogs OK-- A/C-- Laundry-- Parking-- Heating",,,,,,,,,,,11105,Astoria,QUEENS,2100.0,Allowed,COMMERCIAL GARAGE AND PARKING LOT,1,35,10,68,Relatively Safe
"213 N 5th St APT 2L, Brooklyn, NY 11211","213 N 5th St APT 2L, Brooklyn, NY 11211","$3,190/mo",ApartmentAvailable Now-- One-time fees-- Pets-- A/C-- Laundry-- Parking-- Heating,,,,,,,,,,,11211,Brooklyn,BROOKLYN,3190.0,,COMMERCIAL GARAGE AND PARKING LOT,1,39,14,61,Caution Advised
"215 E 89th St APT B, New York, NY 10128","215 E 89th St APT B, New York, NY 10128","$2,395/mo",ApartmentAvailable Now-- One-time fees-- Pets-- A/CShared laundry-- Parking-- Heating,,,,,,,,,,,10128,New York,MANHATTAN,2395.0,,MUSEUM,0,123,63,43,Very Safe
"217 Eckford St #402, Brooklyn, NY 11222","217 Eckford St #402, Brooklyn, NY 11222","$4,700/mo",ApartmentAvailable Tue Oct 15 2024-- One-time fees-- PetsCentral airShared laundryGarage parking-- Heating,,,,,,,,,,,11222,Brooklyn,BROOKLYN,4700.0,,COMMERCIAL GARAGE AND PARKING LOT,1,39,14,61,Caution Advised
"222 W 83rd St #10H, New York, NY 10024","222 W 83rd St #10H, New York, NY 10024","$4,395/mo",ApartmentAvailable --- ---- One-time fees-- Pets-- A/CShared laundry-- Parking-- Heating,,,,,,,,,,,10024,New York,MANHATTAN,4395.0,,MUSEUM,0,123,63,43,Very Safe
"225 Maujer St APT 2B, Brooklyn, NY 11206","225 Maujer St APT 2B, Brooklyn, NY 11206","$3,942/mo",ApartmentAvailable --- ---- One-time feesDogs OK-- A/C-- Laundry-- Parking-- Heating,,,,,,,,,,,11206,Brooklyn,BROOKLYN,3942.0,Allowed,COMMERCIAL GARAGE AND PARKING LOT,1,39,14,61,Caution Advised
"228 W 71st St APT 4G, New York, NY 10023","228 W 71st St APT 4G, New York, NY 10023","$3,924/mo","ApartmentAvailable Fri Jan 3 2025-- One-time feesCats, dogs OKCentral airShared laundry-- Parking-- Heating",,,,,,,,,,,10023,New York,MANHATTAN,3924.0,Allowed,MUSEUM,0,123,63,43,Very Safe
"234 E 106th St #4A1, New York, NY 10029","234 E 106th St #4A1, New York, NY 10029","$2,300/mo","ApartmentAvailable Thu Oct 10 2024-- One-time feesCats, dogs OK-- A/CShared laundry-- Parking-- Heating",,,,,,,,,,,10029,New York,MANHATTAN,2300.0,Allowed,MUSEUM,0,123,63,43,Very Safe
"235 W 56th St APT 39K, New York, NY 10019","235 W 56th St APT 39K, New York, NY 10019","$5,115/mo","ApartmentAvailable Mon Oct 21 2024-- One-time feesCats, dogs OK-- A/CShared laundryGarage parking-- Heating",,,,,,,,,,,10019,New York,MANHATTAN,5115.0,Allowed,MUSEUM,0,123,63,43,Very Safe
"2385 3rd Ave, Bronx, NY 10451",Third at Bankside,"$2,814-$3,518/mo",Apartment buildingStudio-2 bedsOther parking + 1In-unit dryer + 1,"Dishwasher, Dryer, Washer",Ps 154 Jonathan D Hyatt,PK-5,5.0,Bronx Academy Of Letters,6-12,2.0,,,,10451,Bronx,BRONX,3166.0,,COMMERCIAL GARAGE AND PARKING LOT,0,32,3,35,Relatively Safe
"239 W 20th St APT 3, New York, NY 10011","239 W 20th St APT 3, New York, NY 10011","$2,899/mo","ApartmentAvailable Tue Nov 5 2024-- One-time feesCats, dogs OK-- A/C-- Laundry-- Parking-- Heating",,,,,,,,,,,10011,New York,MANHATTAN,2899.0,Allowed,MUSEUM,0,123,63,43,Very Safe
"240 Waverly Pl APT 23, New York, NY 10014","240 Waverly Pl APT 23, New York, NY 10014","$5,350/mo",ApartmentAvailable Now-- One-time feesNo pets-- A/CShared laundry-- Parking-- Heating,,,,,,,,,,,10014,New York,MANHATTAN,5350.0,Not Allowed,MUSEUM,0,123,63,43,Very Safe
"241 Northern Blvd, Douglaston, NY 11362",Luxe By Russos,"$3,100-$3,400/mo",,"Convection oven, Dishwasher, Dryer, Freezer, Microwave oven, Refrigerator, Washer",,,,,,,,,,11362,Douglaston,QUEENS,3250.0,Allowed,COMMERCIAL GARAGE AND PARKING LOT,1,35,10,68,Relatively Safe
"244 W 72nd St APT 8B, New York, NY 10023","244 W 72nd St APT 8B, New York, NY 10023","$3,750/mo",ApartmentAvailable Mon Nov 11 2024-- One-time fees-- Pets-- A/CShared laundry-- Parking-- Heating,,,,,,,,,,,10023,New York,MANHATTAN,3750.0,,MUSEUM,0,123,63,43,Very Safe
"250 E 63rd St #8E, New York, NY 10065","250 E 63rd St #8E, New York, NY 10065","$4,500/mo","ApartmentAvailable Now-- One-time feesCats, dogs OKCentral airShared laundry-- Parking-- Heating",,,,,,,,,,,10065,New York,MANHATTAN,4500.0,Allowed,MUSEUM,0,123,63,43,Very Safe
"250 W 93rd St, New York, NY 10025",The Melar,,,Dishwasher,PS 84 Lillian Weber,PK-5,7.0,Community Action School Ms 258,6-8,4.0,The Global Learning Collaborative,9-12,5.0,10025,New York,MANHATTAN,,,MUSEUM,0,123,63,43,Very Safe
"2610 University Ave #S2, Bronx, NY 10468","2610 University Ave #S2, Bronx, NY 10468","$1,800/mo","ApartmentAvailable --- ---- One-time feesCats, dogs OK-- A/CIn unit laundry + 1-- Parking-- Heating",,,,,,,,,,,10468,Bronx,BRONX,1800.0,Allowed,COMMERCIAL GARAGE AND PARKING LOT,0,32,3,35,Relatively Safe
"262 Prospect Park W #2R, Brooklyn, NY 11215","262 Prospect Park W #2R, Brooklyn, NY 11215","$2,700/mo",ApartmentAvailable Fri Nov 1 2024-- One-time feesNo pets-- A/C-- Laundry-- Parking-- Heating,,,,,,,,,,,11215,Brooklyn,BROOKLYN,2700.0,Not Allowed,COMMERCIAL GARAGE AND PARKING LOT,1,39,14,61,Caution Advised
"27-04 Hoyt Ave S #5, Astoria, NY 11102","27-04 Hoyt Ave S #5, Astoria, NY 11102","$3,000/mo",ApartmentAvailable Fri Nov 1 2024-- One-time feesNo petsCentral airShared laundry-- Parking-- Heating,,,,,,,,,,,11102,Astoria,QUEENS,3000.0,Not Allowed,COMMERCIAL GARAGE AND PARKING LOT,1,35,10,68,Relatively Safe
"2816 41st St #1, Astoria, NY 11103","2816 41st St #1, Astoria, NY 11103","$3,650/mo",ApartmentAvailable Now-- One-time fees-- Pets-- A/C-- Laundry-- Parking-- Heating,,,,,,,,,,,11103,Astoria,QUEENS,3650.0,,COMMERCIAL GARAGE AND PARKING LOT,1,35,10,68,Relatively Safe
"300 E 40th St, New York, NY 10016",The Churchill,,,Dishwasher,,,,,,,,,,10016,New York,MANHATTAN,,,MUSEUM,0,123,63,43,Very Safe
"300 W 135th St APT 3L, New York, NY 10030","300 W 135th St APT 3L, New York, NY 10030","$2,650/mo",ApartmentAvailable --- ---- One-time fees-- PetsCentral airShared laundry-- Parking-- Heating,,,,,,,,,,,10030,New York,MANHATTAN,2650.0,,MUSEUM,0,123,63,43,Very Safe
"301 W 45th St APT 4K, New York, NY 10036","301 W 45th St APT 4K, New York, NY 10036","$3,995/mo","ApartmentAvailable Now-- One-time feesCats, dogs OKCentral airShared laundry-- Parking-- Heating",,,,,,,,,,,10036,New York,MANHATTAN,3995.0,Allowed,MUSEUM,0,123,63,43,Very Safe
"3022 Clarendon Rd #2, Brooklyn, NY 11226","3022 Clarendon Rd #2, Brooklyn, NY 11226","$2,250/mo","ApartmentAvailable Now-- One-time feesCats, dogs OK-- A/C-- Laundry-- Parking-- Heating",,,,,,,,,,,11226,Brooklyn,BROOKLYN,2250.0,Allowed,COMMERCIAL GARAGE AND PARKING LOT,1,39,14,61,Caution Advised
"303 10th Ave APT 3E, New York, NY 10001","303 10th Ave APT 3E, New York, NY 10001","$4,995/mo","ApartmentAvailable Now-- One-time feesCats, dogs OK-- A/CIn unit laundry + 1-- Parking-- Heating",,,,,,,,,,,10001,New York,MANHATTAN,4995.0,Allowed,MUSEUM,0,123,63,43,Very Safe
"306 W 48th St APT 32B, New York, NY 10036","306 W 48th St APT 32B, New York, NY 10036","$5,000/mo",ApartmentAvailable --- ---- One-time fees-- PetsCentral airIn unit laundry + 1-- Parking-- Heating,,,,,,,,,,,10036,New York,MANHATTAN,5000.0,,MUSEUM,0,123,63,43,Very Safe
"309 W 121st St #3D, New York, NY 10027","309 W 121st St #3D, New York, NY 10027","$3,449/mo","ApartmentAvailable Now-- One-time feesCats, dogs OK-- A/CIn unit laundry-- Parking-- Heating",,,,,,,,,,,10027,New York,MANHATTAN,3449.0,Allowed,MUSEUM,0,123,63,43,Very Safe
"312 W 43rd St, New York, NY 10036",The Ellery,"$4,230-$4,500/mo",Apartment buildingStudio-2 bedsPet-friendlyAir conditioning (central)In-unit dryer + 1,"Dishwasher, Dryer, Microwave oven, Oven, Refrigerator, Washer",,,,,,,,,,10036,New York,MANHATTAN,4365.0,Allowed,MUSEUM,0,123,63,43,Very Safe
"315 W 33rd St, New York, NY 10001",The Olivia,"$3,831-$4,336/mo",Apartment buildingStudio-2 beds,,Ps 33 Chelsea Prep,PK-5,5.0,Middle 297,6-8,4.0,Satellite Academy High School,9-12,2.0,10001,New York,MANHATTAN,4083.5,,MUSEUM,0,123,63,43,Very Safe
"315 W 57th St, New York, NY 10019",Park Towers South,,,,,,,,,,,,,10019,New York,MANHATTAN,,Not Allowed,MUSEUM,0,123,63,43,Very Safe
"3203 Nostrand Ave APT 2A, Brooklyn, NY 11229","3203 Nostrand Ave APT 2A, Brooklyn, NY 11229","$2,199/mo",ApartmentAvailable Now-- One-time fees-- Pets-- A/CShared laundry-- Parking-- Heating,,,,,,,,,,,11229,Brooklyn,BROOKLYN,2199.0,,COMMERCIAL GARAGE AND PARKING LOT,1,39,14,61,Caution Advised
"321 E 115th St #4A, New York, NY 10029","321 E 115th St #4A, New York, NY 10029","$2,350/mo","ApartmentAvailable Now-- One-time feesCats, dogs OK-- A/CIn unit laundry-- Parking-- Heating",,,,,,,,,,,10029,New York,MANHATTAN,2350.0,Allowed,MUSEUM,0,123,63,43,Very Safe
"33-03 Parsons Blvd #2, Flushing, NY 11354","33-03 Parsons Blvd #2, Flushing, NY 11354","$2,300/mo",ApartmentAvailable Now-- One-time fees-- Pets-- A/C-- Laundry-- Parking-- Heating,,,,,,,,,,,11354,Flushing,QUEENS,2300.0,,COMMERCIAL GARAGE AND PARKING LOT,1,35,10,68,Relatively Safe
"333 E 43rd St #615, New York, NY 10017","333 E 43rd St #615, New York, NY 10017","$3,750/mo","ApartmentAvailable Sun Dec 1 2024-- One-time feesCats, dogs OK-- A/CShared laundry-- Parking-- Heating",,,,,,,,,,,10017,New York,MANHATTAN,3750.0,Allowed,MUSEUM,0,123,63,43,Very Safe
"340 E 81st St APT 2D, New York, NY 10028","340 E 81st St APT 2D, New York, NY 10028","$3,250/mo","ApartmentAvailable Fri Nov 15 2024-- One-time feesCats, dogs OK-- A/C-- Laundry-- Parking-- Heating",,,,,,,,,,,10028,New York,MANHATTAN,3250.0,Allowed,MUSEUM,0,123,63,43,Very Safe
"363 Bond St, Brooklyn, NY 11231",363 Bond Street,"$3,595/mo",Apartment buildingStudio-1 bedPet-friendlyUnderground garageAir conditioning availableIn-unit dryer + 1,"Dishwasher, Dryer, Freezer, Microwave oven, Oven, Range, Refrigerator, Washer",Ps 32 Samuels Mills Sprole,PK-5,6.0,Ms 51 William Alexander,6-8,6.0,Cobble Hill School of American Studies,9-12,2.0,11231,Brooklyn,BROOKLYN,3595.0,Allowed,COMMERCIAL GARAGE AND PARKING LOT,1,39,14,61,Caution Advised
"363 Ocean Pkwy APT C12, Brooklyn, NY 11218","363 Ocean Pkwy APT C12, Brooklyn, NY 11218","$1,875/mo","ApartmentAvailable Now-- One-time feesCats, dogs OK-- A/CShared laundry-- Parking-- Heating",,,,,,,,,,,11218,Brooklyn,BROOKLYN,1875.0,Allowed,COMMERCIAL GARAGE AND PARKING LOT,1,39,14,61,Caution Advised
"367 S 5th St #1D, Brooklyn, NY 11211","367 S 5th St #1D, Brooklyn, NY 11211","$2,499/mo","ApartmentAvailable Now-- One-time feesCats, dogs OK-- A/C-- Laundry-- Parking-- Heating",,,,,,,,,,,11211,Brooklyn,BROOKLYN,2499.0,Allowed,COMMERCIAL GARAGE AND PARKING LOT,1,39,14,61,Caution Advised
"399 E 8th St #5E, New York, NY 10009","399 E 8th St #5E, New York, NY 10009","$3,550/mo","ApartmentAvailable --- ---- One-time feesCats, dogs OKCentral airIn unit laundry + 1-- Parking-- Heating",,,,,,,,,,,10009,New York,MANHATTAN,3550.0,Allowed,MUSEUM,0,123,63,43,Very Safe
"40-22 College Point Blvd #10C, Flushing, NY 11354","40-22 College Point Blvd #10C, Flushing, NY 11354","$3,000/mo","ApartmentAvailable Now-- One-time feesCats, dogs OK-- A/CIn unit laundry + 1Valet parking-- Heating",,,,,,,,,,,11354,Flushing,QUEENS,3000.0,Allowed,COMMERCIAL GARAGE AND PARKING LOT,1,35,10,68,Relatively Safe
"400 W 37th St, Manhattan, NY 10018",Hudson Crossing,,Apartment buildingStudio-2 bedsPet-friendlyAir conditioning availableShared laundry,"Dishwasher, Microwave oven, Refrigerator",P.S. 51 Elias Howe,PK-5,7.0,Middle 297,6-8,4.0,Professional Performing Arts High School,6-12,7.0,10018,Manhattan,MANHATTAN,,Allowed,MUSEUM,0,123,63,43,Very Safe
"4005 Crescent St #2G, Long Island City, NY 11101","4005 Crescent St #2G, Long Island City, NY 11101","$3,200/mo",ApartmentAvailable --- ---- One-time fees-- Pets-- A/CShared laundryGarage parking-- Heating,,,,,,,,,,,11101,Long Island City,QUEENS,3200.0,,COMMERCIAL GARAGE AND PARKING LOT,1,35,10,68,Relatively Safe
"41-41 43rd St #E7, Sunnyside, NY 11104","41-41 43rd St #E7, Sunnyside, NY 11104","$2,900/mo","ApartmentAvailable Fri Nov 1 2024-- One-time feesCats, dogs OK-- A/CShared laundry-- Parking-- Heating",,,,,,,,,,,11104,Sunnyside,QUEENS,2900.0,Allowed,COMMERCIAL GARAGE AND PARKING LOT,1,35,10,68,Relatively Safe
"414 Bainbridge St #1, Brooklyn, NY 11233","414 Bainbridge St #1, Brooklyn, NY 11233","$2,800/mo",ApartmentAvailable Now-- One-time fees-- Pets-- A/CIn unit laundry + 1-- ParkingFireplace,,,,,,,,,,,11233,Brooklyn,BROOKLYN,2800.0,,COMMERCIAL GARAGE AND PARKING LOT,1,39,14,61,Caution Advised
"417 Gates Ave APT 3, Brooklyn, NY 11216","417 Gates Ave APT 3, Brooklyn, NY 11216","$2,400/mo","ApartmentAvailable Mon Oct 14 2024-- One-time feesCats, dogs OK-- A/C-- Laundry-- Parking-- Heating",,,,,,,,,,,11216,Brooklyn,BROOKLYN,2400.0,Allowed,COMMERCIAL GARAGE AND PARKING LOT,1,39,14,61,Caution Advised
"420 Carroll St, Brooklyn, NY 11215",420 Carroll,"$3,435/mo",,"Dishwasher, Dryer, Freezer, Oven, Refrigerator, Washer, Washer/dryer hookups",,,,,,,,,,11215,Brooklyn,BROOKLYN,3435.0,Allowed,COMMERCIAL GARAGE AND PARKING LOT,1,39,14,61,Caution Advised
"421 E 73rd St APT 2A, New York, NY 10021","421 E 73rd St APT 2A, New York, NY 10021","$3,000/mo",ApartmentAvailable --- ---- One-time fees-- Pets-- A/C-- Laundry-- Parking-- Heating,,,,,,,,,,,10021,New York,MANHATTAN,3000.0,,MUSEUM,0,123,63,43,Very Safe
"43 Douglaston Pkwy #82084D7DC, Little Neck, NY 11363","43 Douglaston Pkwy #82084D7DC, Little Neck, NY 11363","$2,295+/mo","ApartmentAvailable --- ---- One-time feesSmall dogs OKAir conditioner, wall unit, ceiling fanIn unit laundryParking lot parking-- Heating",,,,,,,,,,,11363,Little Neck,QUEENS,2295.0,Allowed,COMMERCIAL GARAGE AND PARKING LOT,1,35,10,68,Relatively Safe
"4311 Ditmars Blvd #2F, Astoria, NY 11105","4311 Ditmars Blvd #2F, Astoria, NY 11105","$2,200/mo",ApartmentAvailable --- ---- One-time fees-- Pets-- A/C-- Laundry-- Parking-- Heating,,,,,,,,,,,11105,Astoria,QUEENS,2200.0,,COMMERCIAL GARAGE AND PARKING LOT,1,35,10,68,Relatively Safe
"460 W 24th St APT 8F, New York, NY 10011","460 W 24th St APT 8F, New York, NY 10011","$5,895/mo","ApartmentAvailable Sat Nov 9 2024-- One-time feesCats, dogs OK-- A/C-- LaundryGarage parking-- Heating",,,,,,,,,,,10011,New York,MANHATTAN,5895.0,Allowed,MUSEUM,0,123,63,43,Very Safe
"461 Dean St, Brooklyn, NY 11217",461 Dean,"$4,095-$5,645/mo",Apartment building1-2 bedsPet-friendlyAir conditioning availableIn-unit dryer + 2,"Dishwasher, Dryer, Garbage disposal, Microwave oven, Washer",,,,,,,,,,11217,Brooklyn,BROOKLYN,4870.0,Allowed,COMMERCIAL GARAGE AND PARKING LOT,1,39,14,61,Caution Advised
"485 Cpw #4C, New York, NY 10025","485 Cpw #4C, New York, NY 10025","$3,000/mo","ApartmentAvailable --- ---- One-time feesCats, dogs OK-- A/CShared laundry-- Parking-- Heating",,,,,,,,,,,10025,New York,MANHATTAN,3000.0,Allowed,MUSEUM,0,123,63,43,Very Safe
"492 Lefferts Ave APT 7F, Brooklyn, NY 11225","492 Lefferts Ave APT 7F, Brooklyn, NY 11225","$2,400/mo","ApartmentAvailable Now-- One-time feesCats, dogs OKCentral airShared laundryGarage parking-- Heating",,,,,,,,,,,11225,Brooklyn,BROOKLYN,2400.0,Allowed,COMMERCIAL GARAGE AND PARKING LOT,1,39,14,61,Caution Advised
"497 Saint Marks Ave APT 6E, Brooklyn, NY 11238","497 Saint Marks Ave APT 6E, Brooklyn, NY 11238","$3,190/mo",ApartmentAvailable Tue Oct 15 2024-- One-time feesCats OKCentral airShared laundryGarage parking-- Heating,,,,,,,,,,,11238,Brooklyn,BROOKLYN,3190.0,Allowed,COMMERCIAL GARAGE AND PARKING LOT,1,39,14,61,Caution Advised
"5 Lincoln Ave, Bronx, NY 10454",Lincoln at Bankside,"$3,010-$3,675/mo",,"Dryer, Washer",Ps 154 Jonathan D Hyatt,PK-5,5.0,Bronx Academy Of Letters,6-12,2.0,,,,10454,Bronx,BRONX,3342.5,Allowed,COMMERCIAL GARAGE AND PARKING LOT,0,32,3,35,Relatively Safe
"500 18th St #17B, New York, NY 10011","500 18th St #17B, New York, NY 10011","$13,500/mo","ApartmentAvailable Now-- One-time feesCats, dogs OKCentral airIn unit laundry + 1Garage parking-- Heating",,,,,,,,,,,10011,New York,MANHATTAN,13500.0,Allowed,MUSEUM,0,123,63,43,Very Safe
"500 W 148th St APT 3G, New York, NY 10031","500 W 148th St APT 3G, New York, NY 10031","$2,250/mo","ApartmentAvailable Now-- One-time feesCats, dogs OK-- A/CShared laundry-- Parking-- Heating",,,,,,,,,,,10031,New York,MANHATTAN,2250.0,Allowed,MUSEUM,0,123,63,43,Very Safe
"509 Van Buren St #3R, Brooklyn, NY 11221","509 Van Buren St #3R, Brooklyn, NY 11221","$2,500/mo","ApartmentAvailable Now-- One-time feesCats, dogs OK-- A/CShared laundry-- Parking-- Heating",,,,,,,,,,,11221,Brooklyn,BROOKLYN,2500.0,Allowed,COMMERCIAL GARAGE AND PARKING LOT,1,39,14,61,Caution Advised
"510 E 13th St APT 5A, New York, NY 10009","510 E 13th St APT 5A, New York, NY 10009","$2,711/mo",ApartmentAvailable --- ---- One-time fees-- Pets-- A/C-- Laundry-- Parking-- Heating,,,,,,,,,,,10009,New York,MANHATTAN,2711.0,,MUSEUM,0,123,63,43,Very Safe
"513 E 82nd St APT 1D, New York, NY 10028","513 E 82nd St APT 1D, New York, NY 10028","$3,000/mo","ApartmentAvailable Wed Nov 6 2024-- One-time feesCats, dogs OK-- A/CIn unit laundry-- Parking-- Heating",,,,,,,,,,,10028,New York,MANHATTAN,3000.0,Allowed,MUSEUM,0,123,63,43,Very Safe
"52 W 56th St APT 4F, New York, NY 10019","52 W 56th St APT 4F, New York, NY 10019","$3,100/mo","ApartmentAvailable --- ---- One-time feesCats, dogs OK-- A/C-- Laundry-- Parking-- Heating",,,,,,,,,,,10019,New York,MANHATTAN,3100.0,Allowed,MUSEUM,0,123,63,43,Very Safe
"536 W 143rd St #29, New York, NY 10031","536 W 143rd St #29, New York, NY 10031","$2,185/mo","ApartmentAvailable --- ---- One-time feesCats, dogs OK-- A/C-- Laundry-- Parking-- Heating",,,,,,,,,,,10031,New York,MANHATTAN,2185.0,Allowed,MUSEUM,0,123,63,43,Very Safe
"55 Suffolk St, New York, NY 10002",The Suffolk,"$3,796/mo",,"Dishwasher, Dryer, Microwave oven, Washer",,,,,,,,,,10002,New York,MANHATTAN,3796.0,,MUSEUM,0,123,63,43,Very Safe
"550 10th Ave #1510, New York, NY 10018","550 10th Ave #1510, New York, NY 10018","$5,000/mo","ApartmentAvailable Now-- One-time feesCats, dogs OK-- A/CIn unit laundry + 1-- Parking-- Heating",,,,,,,,,,,10018,New York,MANHATTAN,5000.0,Allowed,MUSEUM,0,123,63,43,Very Safe
"577 3rd Ave #6B, Brooklyn, NY 11215","577 3rd Ave #6B, Brooklyn, NY 11215","$3,499/mo","ApartmentAvailable Fri Nov 1 2024-- One-time feesCats, dogs OKCentral airIn unit laundryGarage parking-- Heating",,,,,,,,,,,11215,Brooklyn,BROOKLYN,3499.0,Allowed,COMMERCIAL GARAGE AND PARKING LOT,1,39,14,61,Caution Advised
"60 Water St APT 1603, Brooklyn, NY 11201","60 Water St APT 1603, Brooklyn, NY 11201","$5,495/mo","ApartmentAvailable Wed Oct 23 2024-- One-time feesCats, dogs OKCentral airIn unit laundry + 1Garage parking-- Heating",,,,,,,,,,,11201,Brooklyn,BROOKLYN,5495.0,Allowed,COMMERCIAL GARAGE AND PARKING LOT,1,39,14,61,Caution Advised
"60 Wharf Dr, Brooklyn, NY 11222",West Wharf,"$3,631-$4,500/mo",Apartment buildingStudio-3 bedsPet-friendlyAir conditioning availableIn-unit dryer + 2,"Dishwasher, Dryer, Microwave oven, Washer",,,,,,,,,,11222,Brooklyn,BROOKLYN,4065.5,Allowed,COMMERCIAL GARAGE AND PARKING LOT,1,39,14,61,Caution Advised
"671 Bushwick Ave #2G, Brooklyn, NY 11221","671 Bushwick Ave #2G, Brooklyn, NY 11221","$2,750/mo","ApartmentAvailable Now-- One-time feesCats, dogs OK-- A/CShared laundry-- Parking-- Heating",,,,,,,,,,,11221,Brooklyn,BROOKLYN,2750.0,Allowed,COMMERCIAL GARAGE AND PARKING LOT,1,39,14,61,Caution Advised
"691 Chauncey St APT 1B, Brooklyn, NY 11207","691 Chauncey St APT 1B, Brooklyn, NY 11207","$3,300/mo","ApartmentAvailable Fri Nov 1 2024-- One-time feesCats, dogs OKCentral airShared laundry-- Parking-- Heating",,,,,,,,,,,11207,Brooklyn,BROOKLYN,3300.0,Allowed,COMMERCIAL GARAGE AND PARKING LOT,1,39,14,61,Caution Advised
"698 Eastern Pkwy #2R, Brooklyn, NY 11213","698 Eastern Pkwy #2R, Brooklyn, NY 11213","$2,265/mo","ApartmentAvailable Now-- One-time feesCats, dogs OK-- A/C-- Laundry-- Parking-- Heating",,,,,,,,,,,11213,Brooklyn,BROOKLYN,2265.0,Allowed,COMMERCIAL GARAGE AND PARKING LOT,1,39,14,61,Caution Advised
"74 Palmetto St #2F, Brooklyn, NY 11221","74 Palmetto St #2F, Brooklyn, NY 11221","$2,850/mo","ApartmentAvailable Tue Oct 15 2024-- One-time feesCats, dogs OKCentral airIn unit laundry-- Parking-- Heating",,,,,,,,,,,11221,Brooklyn,BROOKLYN,2850.0,Allowed,COMMERCIAL GARAGE AND PARKING LOT,1,39,14,61,Caution Advised
"75 W End Ave #S15J, New York, NY 10023","75 W End Ave #S15J, New York, NY 10023","$4,750/mo","ApartmentAvailable Sat Oct 12 2024-- One-time feesCats, dogs OK-- A/CIn unit laundry + 1Garage parking-- Heating",,,,,,,,,,,10023,New York,MANHATTAN,4750.0,Allowed,MUSEUM,0,123,63,43,Very Safe
"79 W 12th St APT 6F, New York, NY 10011","79 W 12th St APT 6F, New York, NY 10011","$7,500/mo","ApartmentAvailable Fri Nov 1 2024-- One-time feesCats, dogs OK-- A/CShared laundry-- Parking-- Heating",,,,,,,,,,,10011,New York,MANHATTAN,7500.0,Allowed,MUSEUM,0,123,63,43,Very Safe
"819 Lexington Ave #4A, Brooklyn, NY 11221","819 Lexington Ave #4A, Brooklyn, NY 11221","$2,975/mo","ApartmentAvailable Tue Oct 15 2024-- One-time feesCats, dogs OKCentral airIn unit laundry-- Parking-- Heating",,,,,,,,,,,11221,Brooklyn,BROOKLYN,2975.0,Allowed,COMMERCIAL GARAGE AND PARKING LOT,1,39,14,61,Caution Advised
"85-21 Lefferts Blvd #C6, Kew Gardens, NY 11415","85-21 Lefferts Blvd #C6, Kew Gardens, NY 11415","$2,000/mo",ApartmentAvailable Now-- One-time fees-- Pets-- A/C-- Laundry-- Parking-- Heating,,,,,,,,,,,11415,Kew Gardens,QUEENS,2000.0,,COMMERCIAL GARAGE AND PARKING LOT,1,35,10,68,Relatively Safe
"867 Riverside Dr APT 4-R, New York, NY 10032","867 Riverside Dr APT 4-R, New York, NY 10032","$2,300/mo",ApartmentAvailable --- ---- One-time fees-- Pets-- A/C-- Laundry-- Parking-- Heating,,,,,,,,,,,10032,New York,MANHATTAN,2300.0,,MUSEUM,0,123,63,43,Very Safe
"885 6th Ave #24H, New York, NY 10001","885 6th Ave #24H, New York, NY 10001","$5,595/mo",ApartmentAvailable Sat Nov 9 2024-- One-time fees-- PetsCentral airIn unit laundry + 1Garage parking-- Heating,,,,,,,,,,,10001,New York,MANHATTAN,5595.0,,MUSEUM,0,123,63,43,Very Safe
"93 Bainbridge St #3F, Brooklyn, NY 11233","93 Bainbridge St #3F, Brooklyn, NY 11233","$2,400/mo","ApartmentAvailable Fri Nov 1 2024-- One-time feesCats, dogs OK-- A/C-- Laundry-- Parking-- Heating",,,,,,,,,,,11233,Brooklyn,BROOKLYN,2400.0,Allowed,COMMERCIAL GARAGE AND PARKING LOT,1,39,14,61,Caution Advised
"95 Wall St, New York, NY 10005",95 Wall,"$3,558-$4,710/mo",Apartment buildingStudio-2 bedsPet-friendlyAir conditioning availableIn-unit dryer + 2,"Dryer, Oven, Washer",Peck Slip School (The),PK-5,8.0,Jhs 104 Simon Baruch,6-8,7.0,Millennium High School,9-12,8.0,10005,New York,MANHATTAN,4134.0,Allowed,MUSEUM,0,123,63,43,Very Safe
"9745 Queens Blvd APT 1201, Rego Park, NY 11374","9745 Queens Blvd APT 1201, Rego Park, NY 11374","$2,945/mo","ApartmentAvailable Now-- One-time feesCats, dogs OK-- A/C-- LaundryGarage parking-- Heating",,,,,,,,,,,11374,Rego Park,QUEENS,2945.0,Allowed,COMMERCIAL GARAGE AND PARKING LOT,1,35,10,68,Relatively Safe
